GLOBALSTAR M057         
1 25943U 99058A   25347.97383095 -.00000038  00000+0  49709-3 0  9992
2 25943  51.9958 197.9677 0003249  39.4725 320.6361 12.24831999188967
GLOBALSTAR M059         
1 25944U 99058B   25347.58407797 -.00000083  00000+0  43370-4 0  9995
2 25944  52.0027  81.8405 0000533 118.4546 254.7072 11.99988132595588
GLOBALSTAR M056         
1 25945U 99058C   25347.98396840 -.00000126  00000+0 -44471-3 0  9997
2 25945  51.9973  78.1097 0001456 159.3517  11.5674 12.04781118184291
GLOBALSTAR M031         
1 25946U 99058D   25347.25875426 -.00000004  00000+0  87472-3 0  9992
2 25946  51.9979 321.6937 0001099 175.5666 197.4328 12.16044812186338
GLOBALSTAR M039         
1 25961U 99062A   25347.98240429 -.00000057  00000+0  25840-3 0  9992
2 25961  51.9851  81.0874 0002636  43.3398 316.7676 12.62339378202924
GLOBALSTAR M034         
1 25962U 99062B   25347.95741531 -.00000041  00000+0  63693-3 0  9991
2 25962  51.9876 264.0875 0015032  23.0944  57.4772 11.79453847159609
GLOBALSTAR M029         
1 25963U 99062C   25347.38689586 -.00000094  00000+0 -96096-4 0  9993
2 25963  51.9831 330.2581 0002546 103.2249  44.7141 11.99903709190632
GLOBALSTAR M061         
1 25964U 99062D   25347.70700926 -.00000089  00000+0 -14210-3 0  9993
2 25964  51.9792  91.1531 0005036 302.2465 207.0030 11.76778079142313
